INTELSAT 23 (IS-23)     
1 38867U 12057A   26200.82892110 -.00000288  00000+0  00000+0 0  9995
2 38867   0.0179  13.7159 0000414 112.3847  56.9017  1.00276310 50285
BEIDOU-2 G6             
1 38953U 12059A   26200.83396823 -.00000181  00000+0  00000+0 0  9996
2 38953   4.5024  73.1715 0008853 327.8856 280.8014  1.00273139 50231
LUCH-5B                 
1 38977U 12061A   26200.83102602 -.00000146  00000+0  00000+0 0  9996
2 38977  10.5527  49.5557 0003793 146.0693  24.8591  1.00270427 49939
YAMAL 300K              
1 38978U 12061B   26200.51396736  .00000067  00000+0  00000+0 0  9996
2 38978   0.0121 234.8051 0000116 269.5559 160.9198  1.00270921 49956
STAR ONE C3             
1 38991U 12062A   26200.84558581 -.00000252  00000+0  00000+0 0  9993
2 38991   0.0155  66.4620 0002332  58.2832  42.3064  1.00272453 50092
EUTELSAT 21B            
1 38992U 12062B   26200.86612676  .00000127  00000+0  00000+0 0  9992
2 38992   0.0679 344.3320 0003243 141.8488 144.8388  1.00273249 50155
ECHOSTAR 16             
1 39008U 12065A   26200.82892110 -.00000285  00000+0  00000+0 0  9999
2 39008   0.0187  51.1029 0002104  65.1256  58.2939  1.00272150 49971
ZHONGXING-12            
1 39017U 12067A   26200.90059313 -.00000209  00000+0  00000+0 0  9996
2 39017   0.0453  97.1411 0002694  18.5997 233.6445  1.00270821 49839
EUTELSAT 70B            
1 39020U 12069A   26200.84814187 -.00000047  00000+0  00000+0 0  9993
2 39020   0.0621  11.1395 0003576 107.1382 195.1756  1.00271791 49834
YAMAL 402               
1 39022U 12070A   26200.84502185  .00000082  00000+0  00000+0 0  9997
2 39022   1.3466  83.7569 0003761  27.9615 185.0022  1.00272167 49729
SKYNET 5D               
1 39034U 12075A   26200.84467520  .00000096  00000+0  00000+0 0  9993
2 39034   0.0684   7.8459 0003613 118.4543 168.1485  1.00272560 49482
MEXSAT 3                
1 39035U 12075B   26200.61572735 -.00000029  00000+0  00000+0 0  9991
2 39035   0.0189  64.8532 0001161  46.4863 292.9155  1.00271207  7378
TDRS 11                 
1 39070U 13004A   26200.79965256  .00000074  00000+0  00000+0 0  9995
2 39070   3.5683  31.7621 0005371  29.9534 349.5628  1.00264794 47027
AMAZONAS 3              
1 39078U 13006A   26200.82892110 -.00000286  00000+0  00000+0 0  9993
2 39078   0.0410 231.2629 0003525 280.2232  23.5309  1.00271124 45248
AZERSPACE 1             
1 39079U 13006B   26200.84328852  .00000130  00000+0  00000+0 0  9990
2 39079   0.0181 308.9199 0002150 210.4263 127.8364  1.00267960 49134
SBIRS GEO-2 (USA 241)   
1 39120U 13011A   26200.53918748 -.00000293  00000+0  00000+0 0  9999
2 39120   4.5568  52.5021 0001947  60.0785 329.0554  1.00271433 48862
EUTELSAT 117 WEST A     
1 39122U 13012A   26200.61572735 -.00000017  00000+0  00000+0 0  9997
2 39122   0.0401 274.5324 0002850 202.5934 285.1246  1.00271275 48758
ANIK G1                 
1 39127U 13014A   26200.61016971 -.00000078  00000+0  00000+0 0  9996
2 39127   0.0253 281.0104 0001871 204.4208 284.3180  1.00272103 48573
ZHONGXING-11            
1 39157U 13020A   26200.87765370 -.00000294  00000+0  00000+0 0  9998
2 39157   0.0455 272.9950 0002236 165.2165 273.2905  1.00273532 48221
EUTELSAT 7B             
1 39163U 13022A   26200.80114023  .00000044  00000+0  00000+0 0  9995
2 39163   0.0662 347.5537 0003233  62.2899 183.1340  1.00271078 48276
WGS F5 (USA 243)        
1 39168U 13024A   26200.82892110  .00000000  00000+0  00000+0 0  9996
2 39168   0.0214  63.3750 0000112  77.3010  42.8566  1.00269647 47504
SES-6                   
1 39172U 13026A   26200.81780833 -.00000264  00000+0  00000+0 0  9993
2 39172   0.0165   9.3850 0002702  89.5394  92.5930  1.00271939 48057
IRNSS-1A                
1 39199U 13034A   26191.72043649  .00000047  00000+0  00000+0 0  9995
2 39199  35.7704  63.5328 0017567 183.4462 356.2994  1.00281941 47601
MUOS-2                  
1 39206U 13036A   26200.79696588 -.00000018  00000+0  00000+0 0  9999
2 39206   5.0583  45.5540 0053076 176.3937 174.5095  1.00273166 47517
ALPHASAT                
1 39215U 13038A   26200.86912486  .00000130  00000+0  00000+0 0  9991
2 39215   2.9996   1.1820 0002481 139.0659 135.1575  1.00273832 44345
INSAT-3D                
1 39216U 13038B   26200.77039624 -.00000343  00000+0  00000+0 0  9993
2 39216   2.0084  82.1300 0001007  44.5443 217.7107  1.00273998 47402
WGS F6 (USA 244)        
1 39222U 13041A   26200.73611110  .00000085  00000+0  00000+0 0  9998
2 39222   0.0187  55.9423 0000302  55.4706 315.9086  1.00272366 46386
ES'HAIL 1               
1 39233U 13044A   26200.86942655  .00000140  00000+0  00000+0 0  9990
2 39233   0.0473 359.3801 0002340 110.4625 166.2863  1.00270741 46951
GSAT-7                  
1 39234U 13044B   26200.84883521 -.00000080  00000+0  00000+0 0  9999
2 39234   0.1629  89.4948 0003044 174.7026  52.9672  1.00272105 45582
AMOS-4                  
1 39237U 13045A   26200.84701521  .00000004  00000+0  00000+0 0  9997
2 39237   0.0101 228.1749 0002031 220.0393 219.3308  1.00271539 47281
AEHF-3 (USA 246)        
1 39256U 13050A   26200.41989162  .00000022  00000+0  00000+0 0  9996
2 39256   5.3705  66.8854 0088620 187.7089  69.4965  1.00272130 45978
ASTRA 2E                
1 39285U 13056A   26200.87163257  .00000147  00000+0  00000+0 0  9991
2 39285   0.0692 320.5870 0002582 154.1882 165.1194  1.00271235 46746
