OBJECT_NAME,OBJECT_ID,EPOCH,MEAN_MOTION,ECCENTRICITY,INCLINATION,RA_OF_ASC_NODE,ARG_OF_PERICENTER,MEAN_ANOMALY,EPHEMERIS_TYPE,CLASSIFICATION_TYPE,NORAD_CAT_ID,ELEMENT_SET_NO,REV_AT_EPOCH,BSTAR,MEAN_MOTION_DOT,MEAN_MOTION_DDOT
INTELSAT 23 (IS-23),2012-057A,2026-07-19T19:53:38.783040,1.00276310,.0000414,0.0179,13.7159,112.3847,56.9017,0,U,38867,999,5028,0,-.288E-5,0
BEIDOU-2 G6,2012-059A,2026-07-19T20:00:54.855072,1.00273139,.0008853,4.5024,73.1715,327.8856,280.8014,0,U,38953,999,5023,0,-.181E-5,0
LUCH-5B,2012-061A,2026-07-19T19:56:40.648128,1.00270427,.0003793,10.5527,49.5557,146.0693,24.8591,0,U,38977,999,4993,0,-.146E-5,0
YAMAL 300K,2012-061B,2026-07-19T12:20:06.779904,1.00270921,.00001165,0.0121,234.8051,269.5559,160.9198,0,U,38978,999,4995,0,.67E-6,0
STAR ONE C3,2012-062A,2026-07-19T20:17:38.613984,1.00272453,.0002332,0.0155,66.4620,58.2832,42.3064,0,U,38991,999,5009,0,-.252E-5,0
EUTELSAT 21B,2012-062B,2026-07-19T20:47:13.352064,1.00273249,.0003243,0.0679,344.3320,141.8488,144.8388,0,U,38992,999,5015,0,.127E-5,0
ECHOSTAR 16,2012-065A,2026-07-19T19:53:38.783040,1.00272150,.0002104,0.0187,51.1029,65.1256,58.2939,0,U,39008,999,4997,0,-.285E-5,0
ZHONGXING-12,2012-067A,2026-07-19T21:36:51.246432,1.00270821,.0002694,0.0453,97.1411,18.5997,233.6445,0,U,39017,999,4983,0,-.209E-5,0
EUTELSAT 70B,2012-069A,2026-07-19T20:21:19.457568,1.00271791,.0003576,0.0621,11.1395,107.1382,195.1756,0,U,39020,999,4983,0,-.47E-6,0
YAMAL 402,2012-070A,2026-07-19T20:16:49.887840,1.00272167,.0003761,1.3466,83.7569,27.9615,185.0022,0,U,39022,999,4972,0,.82E-6,0
SKYNET 5D,2012-075A,2026-07-19T20:16:19.937280,1.00272560,.0003613,0.0684,7.8459,118.4543,168.1485,0,U,39034,999,4948,0,.96E-6,0
MEXSAT 3,2012-075B,2026-07-19T14:46:38.843040,1.00271207,.0001161,0.0189,64.8532,46.4863,292.9155,0,U,39035,999,737,0,-.29E-6,0
TDRS 11,2013-004A,2026-07-19T19:11:29.981184,1.00264794,.0005371,3.5683,31.7621,29.9534,349.5628,0,U,39070,999,4702,0,.74E-6,0
AMAZONAS 3,2013-006A,2026-07-19T19:53:38.783040,1.00271124,.0003525,0.0410,231.2629,280.2232,23.5309,0,U,39078,999,4524,0,-.286E-5,0
AZERSPACE 1,2013-006B,2026-07-19T20:14:20.128128,1.00267960,.000215,0.0181,308.9199,210.4263,127.8364,0,U,39079,999,4913,0,.13E-5,0
SBIRS GEO-2 (USA 241),2013-011A,2026-07-19T12:56:25.798272,1.00271433,.0001947,4.5568,52.5021,60.0785,329.0554,0,U,39120,999,4886,0,-.293E-5,0
EUTELSAT 117 WEST A,2013-012A,2026-07-19T14:46:38.843040,1.00271275,.000285,0.0401,274.5324,202.5934,285.1246,0,U,39122,999,4875,0,-.17E-6,0
ANIK G1,2013-014A,2026-07-19T14:38:38.662944,1.00272103,.0001871,0.0253,281.0104,204.4208,284.3180,0,U,39127,999,4857,0,-.78E-6,0
ZHONGXING-11,2013-020A,2026-07-19T21:03:49.279680,1.00273532,.0002236,0.0455,272.9950,165.2165,273.2905,0,U,39157,999,4822,0,-.294E-5,0
EUTELSAT 7B,2013-022A,2026-07-19T19:13:38.515872,1.00271078,.0003233,0.0662,347.5537,62.2899,183.1340,0,U,39163,999,4827,0,.44E-6,0
WGS F5 (USA 243),2013-024A,2026-07-19T19:53:38.783040,1.00269647,.0000112,0.0214,63.3750,77.3010,42.8566,0,U,39168,999,4750,0,0,0
SES-6,2013-026A,2026-07-19T19:37:38.639712,1.00271939,.0002702,0.0165,9.3850,89.5394,92.5930,0,U,39172,999,4805,0,-.264E-5,0
IRNSS-1A,2013-034A,2026-07-10T17:17:25.712736,1.00281941,.0017567,35.7704,63.5328,183.4462,356.2994,0,U,39199,999,4760,0,.47E-6,0
MUOS-2,2013-036A,2026-07-19T19:07:37.852032,1.00273166,.0053076,5.0583,45.5540,176.3937,174.5095,0,U,39206,999,4751,0,-.18E-6,0
ALPHASAT,2013-038A,2026-07-19T20:51:32.387904,1.00273832,.0002481,2.9996,1.1820,139.0659,135.1575,0,U,39215,999,4434,0,.13E-5,0
INSAT-3D,2013-038B,2026-07-19T18:29:22.235136,1.00273998,.0001007,2.0084,82.1300,44.5443,217.7107,0,U,39216,999,4740,0,-.343E-5,0
WGS F6 (USA 244),2013-041A,2026-07-19T17:39:59.999040,1.00272366,.0000302,0.0187,55.9423,55.4706,315.9086,0,U,39222,999,4638,0,.85E-6,0
ES'HAIL 1,2013-044A,2026-07-19T20:51:58.453920,1.00270741,.000234,0.0473,359.3801,110.4625,166.2863,0,U,39233,999,4695,0,.14E-5,0
GSAT-7,2013-044B,2026-07-19T20:22:19.362144,1.00272105,.0003044,0.1629,89.4948,174.7026,52.9672,0,U,39234,999,4558,0,-.8E-6,0
AMOS-4,2013-045A,2026-07-19T20:19:42.114144,1.00271539,.0002031,0.0101,228.1749,220.0393,219.3308,0,U,39237,999,4728,0,.4E-7,0
AEHF-3 (USA 246),2013-050A,2026-07-19T10:04:38.635968,1.00272130,.00886201,5.3705,66.8854,187.7089,69.4965,0,U,39256,999,4597,0,.22E-6,0
ASTRA 2E,2013-056A,2026-07-19T20:55:09.054048,1.00271235,.0002582,0.0692,320.5870,154.1882,165.1194,0,U,39285,999,4674,0,.147E-5,0
